NORAD_CAT_ID,OBJECT_NAME,OBJECT_TYPE,EPOCH,MEAN_MOTION,ECCENTRICITY,INCLINATION,RA_OF_ASC_NODE,ARG_OF_PERICENTER,MEAN_ANOMALY,BSTAR,MEAN_MOTION_DOT,MEAN_MOTION_DDOT,TLE_LINE0,TLE_LINE1,TLE_LINE2,SEMIMAJOR_AXIS,PERIOD,APOGEE,PERIGEE,DECAYED
52851.0,STARLINK-3809,PAYLOAD,2024-06-08 14:51:19,15.08839456,0.0001776,53.2162,13.0182,99.5391,260.5802,4.3434e-05,4.03e-06,0.0,0 STARLINK-3809,1 52851U 22062X   24160.61897689  .00000403  00000-0  43434-4 0  9999,2 52851  53.2162  13.0182 0001776  99.5391 260.5802 15.08839456109444,6917.882,95.438,540.976,538.518,0.0
52851.0,STARLINK-3809,PAYLOAD,2024-06-08 21:12:51,15.08841522,0.0001071,53.2207,11.8297,88.2731,271.8383,0.00015388,2.162e-05,0.0,0 STARLINK-3809,1 52851U 22062X   24160.88393364  .00002162  00000-0  15388-3 0  9999,2 52851  53.2207  11.8297 0001071  88.2731 271.8383 15.08841522109488,6917.876,95.437,540.482,539.0,0.0
52851.0,STARLINK-3809,PAYLOAD,2024-06-09 00:23:38,15.08843441,0.0001298,53.2182,11.235,90.2164,269.8977,0.00015927,2.248e-05,0.0,0 STARLINK-3809,1 52851U 22062X   24161.01641361  .00002248  00000-0  15927-3 0  9992,2 52851  53.2182  11.2350 0001298  90.2164 269.8977 15.08843441109992,6917.87,95.437,540.633,538.837,0.0
52851.0,STARLINK-3809,PAYLOAD,2024-06-09 14:42:06,15.08836247,0.0001028,53.2162,8.5584,86.4399,273.671,-0.00014532,-2.6e-05,0.0,0 STARLINK-3809,1 52851U 22062X   24161.61258026 -.00002600  00000-0 -14532-3 0  9995,2 52851  53.2162   8.5584 0001028  86.4399 273.6710 15.08836247109596,6917.892,95.438,540.468,539.046,0.0
52851.0,STARLINK-3809,PAYLOAD,2024-06-09 21:03:39,15.08836359,9.41e-05,53.217,7.3676,71.1645,288.9449,-9.8982e-05,-1.862e-05,0.0,0 STARLINK-3809,1 52851U 22062X   24161.87754110 -.00001862  00000-0 -98982-4 0  9999,2 52851  53.2170   7.3676 0000941  71.1645 288.9449 15.08836359110125,6917.892,95.438,540.407,539.106,0.0
52851.0,STARLINK-3809,PAYLOAD,2024-06-10 06:35:58,15.08842072,9.08e-05,53.2168,5.5837,66.7711,293.3377,-2.4002e-05,-6.7e-06,0.0,0 STARLINK-3809,1 52851U 22062X   24162.27497869 -.00000670  00000-0 -24002-4 0  9997,2 52851  53.2168   5.5837 0000908  66.7711 293.3377 15.08842072109697,6917.874,95.437,540.367,539.111,0.0
52851.0,STARLINK-3809,PAYLOAD,2024-06-10 20:54:26,15.08850441,0.0001263,53.2184,2.9088,82.744,277.3696,0.00021115,3.075e-05,0.0,0 STARLINK-3809,1 52851U 22062X   24162.87113646  .00003075  00000-0  21115-3 0  9992,2 52851  53.2184   2.9088 0001263  82.7440 277.3696 15.08850441110277,6917.848,95.437,540.587,538.84,0.0
52851.0,STARLINK-3809,PAYLOAD,2024-06-10 22:29:49,15.0885058,0.0001376,53.217,2.6132,91.8535,268.2615,0.00022301,3.264e-05,0.0,0 STARLINK-3809,1 52851U 22062X   24162.93737655  .00003264  00000-0  22301-3 0  9999,2 52851  53.2170   2.6132 0001376  91.8535 268.2615 15.08850580109799,6917.848,95.437,540.665,538.761,0.0
52851.0,STARLINK-3809,PAYLOAD,2024-06-11 06:26:45,15.08840519,0.0001479,53.2195,1.1251,90.2924,269.8238,0.00015164,2.126e-05,0.0,0 STARLINK-3809,1 52851U 22062X   24163.26858147  .00002126  00000-0  15164-3 0  9991,2 52851  53.2195   1.1251 0001479  90.2924 269.8238 15.08840519109846,6917.879,95.438,540.767,538.721,0.0
52851.0,STARLINK-3809,PAYLOAD,2024-06-11 22:20:36,15.08848042,0.000119,53.2166,358.1521,84.28,275.8328,0.00019147,2.761e-05,0.0,0 STARLINK-3809,1 52851U 22062X   24163.93097597  .00002761  00000-0  19147-3 0  9999,2 52851  53.2166 358.1521 0001190  84.2800 275.8328 15.08848042110438,6917.856,95.437,540.544,538.898,0.0
52851.0,STARLINK-3809,PAYLOAD,2024-06-12 06:17:32,15.08843465,0.0001309,53.2194,356.6648,81.1742,278.9398,8.5404e-05,1.072e-05,0.0,0 STARLINK-3809,1 52851U 22062X   24164.26218135  .00001072  00000-0  85404-4 0  9993,2 52851  53.2194 356.6648 0001309  81.1742 278.9398 15.08843465110485,6917.87,95.437,540.64,538.829,0.0
52851.0,STARLINK-3809,PAYLOAD,2024-06-12 22:11:23,15.08844969,0.0001512,53.2198,353.6882,92.2255,267.891,-1.9121e-05,-5.92e-06,0.0,0 STARLINK-3809,1 52851U 22062X   24164.92458278 -.00000592  00000-0 -19121-4 0  9991,2 52851  53.2198 353.6882 0001512  92.2255 267.8910 15.08844969110098,6917.865,95.437,540.776,538.684,0.0
52851.0,STARLINK-3809,PAYLOAD,2024-06-13 06:08:19,15.08842102,0.0001527,53.2199,352.2017,95.3492,264.7675,5.0172e-05,5.11e-06,0.0,0 STARLINK-3809,1 52851U 22062X   24165.25578245  .00000511  00000-0  50172-4 0  9995,2 52851  53.2199 352.2017 0001527  95.3492 264.7675 15.08842102110638,6917.874,95.437,540.795,538.683,0.0
52851.0,STARLINK-3809,PAYLOAD,2024-06-13 22:02:10,15.08850683,0.0001452,53.2188,349.2273,103.3165,256.7989,3.2087e-05,2.23e-06,0.0,0 STARLINK-3809,1 52851U 22062X   24165.91817527  .00000223  00000-0  32087-4 0  9992,2 52851  53.2188 349.2273 0001452 103.3165 256.7989 15.08850683110249,6917.848,95.437,540.717,538.708,0.0
52851.0,STARLINK-3809,PAYLOAD,2024-06-14 12:20:39,15.08829084,0.0001575,53.2185,346.5507,101.8149,258.302,0.0001632,2.31e-05,0.0,0 STARLINK-3809,1 52851U 22062X   24166.51434728  .00002310  00000-0  16320-3 0  9997,2 52851  53.2185 346.5507 0001575 101.8149 258.3020 15.08829084110332,6917.914,95.438,540.868,538.689,0.0
52851.0,STARLINK-3809,PAYLOAD,2024-06-14 18:42:11,15.08838167,0.0001404,53.2168,345.3642,94.8815,265.2337,0.00011449,1.535e-05,0.0,0 STARLINK-3809,1 52851U 22062X   24166.77930292  .00001535  00000-0  11449-3 0  9997,2 52851  53.2168 345.3642 0001404  94.8815 265.2337 15.08838167110376,6917.886,95.438,540.722,538.78,0.0
52851.0,STARLINK-3809,PAYLOAD,2024-06-15 12:11:26,15.08840249,0.0001258,53.2176,342.0938,95.7146,264.399,6.9212e-05,8.14e-06,0.0,0 STARLINK-3809,1 52851U 22062X   24167.50794326  .00000814  00000-0  69212-4 0  9996,2 52851  53.2176 342.0938 0001258  95.7146 264.3990 15.08840249110482,6917.88,95.438,540.615,538.874,0.0
52851.0,STARLINK-3809,PAYLOAD,2024-06-15 18:32:58,15.08849947,0.0001304,53.2178,340.9064,100.9064,259.2074,5.9792e-05,6.64e-06,0.0,0 STARLINK-3809,1 52851U 22062X   24167.77289718  .00000664  00000-0  59792-4 0  9994,2 52851  53.2178 340.9064 0001304 100.9064 259.2074 15.08849947110526,6917.85,95.437,540.617,538.813,0.0
52851.0,STARLINK-3809,PAYLOAD,2024-06-16 12:02:13,15.08836174,0.0001425,53.2182,337.6351,101.0143,259.101,5.945e-05,6.58e-06,0.0,0 STARLINK-3809,1 52851U 22062X   24168.50154625  .00000658  00000-0  59450-4 0  9998,2 52851  53.2182 337.6351 0001425 101.0143 259.1010 15.08836174110636,6917.892,95.438,540.743,538.771,0.0
52851.0,STARLINK-3809,PAYLOAD,2024-06-16 18:23:45,15.08841465,0.0001424,53.2184,336.4467,108.2567,251.858,9.5452e-05,1.232e-05,0.0,0 STARLINK-3809,1 52851U 22062X   24168.76650171  .00001232  00000-0  95452-4 0  9994,2 52851  53.2184 336.4467 0001424 108.2567 251.8580 15.08841465110675,6917.876,95.437,540.726,538.756,0.0
52851.0,STARLINK-3809,PAYLOAD,2024-06-17 18:14:33,15.08833119,0.0001233,53.2187,331.9867,100.6001,259.513,-2.9245e-05,-7.53e-06,0.0,0 STARLINK-3809,1 52851U 22062X   24169.76011258 -.00000753  00000-0 -29245-4 0  9998,2 52851  53.2187 331.9867 0001233 100.6001 259.5130 15.08833119111314,6917.901,95.438,540.619,538.913,0.0
52851.0,STARLINK-3809,PAYLOAD,2024-06-18 14:54:34,15.08831026,0.0001068,53.2173,328.1189,96.5981,263.5133,0.00013477,1.857e-05,0.0,0 STARLINK-3809,1 52851U 22062X   24170.62123235  .00001857  00000-0  13477-3 0  9997,2 52851  53.2173 328.1189 0001068  96.5981 263.5133 15.08831026110952,6917.908,95.438,540.512,539.034,0.0
52851.0,STARLINK-3809,PAYLOAD,2024-06-18 19:40:43,15.08843094,0.0001156,53.2172,327.2268,87.3419,272.7706,8.2165e-05,1.02e-05,0.0,0 STARLINK-3809,1 52851U 22062X   24170.81994626  .00001020  00000-0  82165-4 0  9991,2 52851  53.2172 327.2268 0001156  87.3419 272.7706 15.08843094111475,6917.871,95.437,540.536,538.936,0.0
52851.0,STARLINK-3809,PAYLOAD,2024-06-19 09:59:12,15.08832671,0.0001132,53.2171,324.5506,96.9305,263.1816,8.0843e-05,9.99e-06,0.0,0 STARLINK-3809,1 52851U 22062X   24171.41611349  .00000999  00000-0  80843-4 0  9991,2 52851  53.2171 324.5506 0001132  96.9305 263.1816 15.08832671111568,6917.903,95.438,540.551,538.985,0.0
52851.0,STARLINK-3809,PAYLOAD,2024-06-19 14:45:21,15.08832593,0.0001232,53.217,323.6588,85.2693,274.8439,8.421e-05,1.052e-05,0.0,0 STARLINK-3809,1 52851U 22062X   24171.61483475  .00001052  00000-0  84210-4 0  9993,2 52851  53.2170 323.6588 0001232  85.2693 274.8439 15.08832593111102,6917.903,95.438,540.62,538.916,0.0
52851.0,STARLINK-3809,PAYLOAD,2024-06-19 17:56:07,15.08837066,0.0001116,53.217,323.0631,90.8784,269.2335,9.6524e-05,1.249e-05,0.0,0 STARLINK-3809,1 52851U 22062X   24171.74731151  .00001249  00000-0  96524-4 0  9993,2 52851  53.2170 323.0631 0001116  90.8784 269.2335 15.08837066111124,6917.889,95.438,540.526,538.982,0.0
52851.0,STARLINK-3809,PAYLOAD,2024-06-20 14:36:08,15.08841244,0.0001178,53.2164,319.1971,89.567,270.5457,6.5551e-05,7.56e-06,0.0,0 STARLINK-3809,1 52851U 22062X   24172.60843151  .00000756  00000-0  65551-4 0  9991,2 52851  53.2164 319.1971 0001178  89.5670 270.5457 15.08841244111254,6917.877,95.437,540.557,538.927,0.0
52851.0,STARLINK-3809,PAYLOAD,2024-06-20 16:11:31,15.08845322,0.0001096,53.2168,318.9,96.855,263.2567,6.9953e-06,-1.76e-06,0.0,0 STARLINK-3809,1 52851U 22062X   24172.67467075 -.00000176  00000-0  69953-5 0  9993,2 52851  53.2168 318.9000 0001096  96.8550 263.2567 15.08845322111752,6917.864,95.437,540.487,538.971,0.0
52851.0,STARLINK-3809,PAYLOAD,2024-06-21 12:51:33,15.08830263,0.0001294,53.2176,315.0359,81.1277,278.9861,4.6491e-06,-2.14e-06,0.0,0 STARLINK-3809,1 52851U 22062X   24173.53580387 -.00000214  00000-0  46491-5 0  9996,2 52851  53.2176 315.0359 0001294  81.1277 278.9861 15.08830263111881,6917.91,95.438,540.67,538.88,0.0
52851.0,STARLINK-3809,PAYLOAD,2024-06-21 14:26:56,15.08829588,0.0001322,53.2178,314.7384,82.0152,278.0991,-8.1045e-06,-4.17e-06,0.0,0 STARLINK-3809,1 52851U 22062X   24173.60204497 -.00000417  00000-0 -81045-5 0  9999,2 52851  53.2178 314.7384 0001322  82.0152 278.0991 15.08829588111402,6917.912,95.438,540.692,538.863,0.0
